Origin Time       2011/04/11 17:16:00
Lat.              36.945
Long.             140.672
Depth. (km)       6
Mag.              7.0
Station Code      IBRH12
Station Lat.      36.8369
Station Long.     140.3181
Station Height(m) 10
Record Time       2011/04/11 17:16:18
Sampling Freq(Hz) 100Hz
Duration Time(s)  192
Dir.              2
Scale Factor      2940(gal)/6170270
Max. Acc. (gal)   35.577
Last Correction   2011/04/11 17:16:03
Memo.             
[...]
   98612    98612    98617    98625    98614    98601    98600    98604 
   98606    98605    98613    98619    98609    98607    98622    98626 
   98611    98598    98599    98612    98617    98621    98623    98608 
   98600    98604    98604    98605    98612    98622    98617    98599 
   98601    98617    98621    98608    98588    98596    98625    98623 
   98608    98611    98611    98607    98613    98613    98604    98605 
   98608    98606    98620    98631    98614    98599    98596    98607 
   98618    98614    98615    98611    98596    98596    98605    98614 
   98624    98622    98611    98609    98614    98609    98602    98605 
   98608    98619    98615    98605    98614    98613    98602    98610 
   98619    98613    98607    98599    98600    98619    98623    98603 
   98598    98604    98608    98620    98622    98602    98591    98606 
   98618    98613    98615    98616    98607    98608    98616    98610 
   98601    98608    98615    98608    98606    98613    98617    98612 
   98608    98612    98611    98607    98617    98618    98599    98602 
   98616    98608    98603    98609    98605    98604    98609    98614 
   98614    98604    98604    98611    98604    98601    98613    98621 
   98614    98602    98602    98619    98621    98605    98600    98604 
   98603    98607    98615    98614    98608    98607    98608    98608 
   98609    98612    98612    98610    98607    98601    98600    98609 
   98614    98615    98611    98605    98605    98607    98606    98600 
   98601    98611    98608    98604    98608    98612    98609    98605 
   98605    98608    98615    98620    98609    98598    98603    98613 
   98615    98608    98605    98606    98610    98612    98606    98605 
   98607    98600    98605    98615    98611    98604    98604    98608 
   98610    98609    98612    98609    98605    98615    98616    98604 
   98599    98606    98616    98615    98606    98609    98611    98598 
   98593    98610    98617    98605    98605    98613    98610    98606 
   98600    98601    98613    98613    98604    98603    98606    98606 
   98606    98604    98600    98609    98624    98611    98581    98570 
   98580    98608    98627    98580    98478    98371    98298    98348 
   98579    98809    98777    98557    98344    98107    97901    97924 
   98076    98133    98105    98010    97810    97575    97330    97058 
   96838    96598    96312    96360    96788    97025    96853    96384 
   95820    96002    97229    98330    98369    97632    97341    98324 
   99472    99721    99691    99765    99580    98737    96870    94716 
   93777    94251    95446    96769    97631    97871    97351    96310 
   95825    95650    94553    93330    93532    95429    98797   101649 
  101909   101068   100101    98702    98885   100234   100408   101074 
  102468   101831   100043    98532    96261    94531    95181    96697 
   97925    98672    98080    97510    98860   101002   101694    99883 
   96969    96245    98925   102164   103200   102753   101334    97265 
   92035    91219    95561    99318   100168    99890    99312    99703 
  100546    99283    97563    97968    98695    98374    98331    99087 
   99864   101220   103631   103002    97647    94274    95421    96682 
   96882    95776    94245    95625    96966    95558    95134    95636 
   94831    92481    90023    91689    96242    97600    96098    95998 
   97130    97163    97405   100207   103936   104555   102216   100134 
   98053    96364    96178    95456    94181    93151    93344    97391 
  101397    99986    96395    93108    89647    88182    89027    91922 
   95654    97386    99896   102245    99843    99433   101490    98085 
   95986    98308    98232    99514   102974   102936   102346   103092 
  101752    98734    96556    96174    96395    96036    95631    94519 
   92755    91272    89628    90182    94015    97520   100025   102524 
  104208   104539   102849   100850   101196   100650    96470    95872 
  102090   103829    99748   101150   103587    99689    95058    91917 
   91201    94142    96513    99101   102103   100957    99721    99532 
   94932    91752    94538    97587    99680   100776    98747    96239 
   96251    98490    98929    94891    93798    97572    96739    94080 
   97272   101109   101089    98992    97312    97521    98129    99704 
  102732   103993   103769   102135    99603   100892   100789    94686 
   91776    92415    91827    92646    91860    91172    94963    94603 
   91103    92562    94817    95997    96196    94585    96154    99674 
  101173   101499    97768    93569    97355   101921    99953    99255 
  101047    99202    96900    97306    98487    97328    92656    92385 
   98409   100116    98275   100812   101642    96039    93465    97755 
  101417    98990    93442    92265    94454    93723    93905    97079 
   94183    87588    88697    93597    95409    96933    99632   101023 
   98441    95734    98763   102772   102899   103404   106525   107562 
  102623    97267    99106   102422    99686    97212    99193    98644 
   94068    89760    87567    92367   101625   103283    99261    98731 
  100921   102446   100951    96537    92726    93183    98867   102954 
  101151    99898   101035    98917    96269    99495   104824   108028 
  106740   101698   103231   108836   107107   101120    96305    96221 
  100917   101269    96972    96869   100850   101969    95443    86285 
   86008    94283   100367    98118    93348    97017   103831   104344 
  102401    98632    97387   105655   110554   104302   102645   106435 
  100883    96216   100999   103107   103820   103177    98495   100054 
  102451    96806    90751    88424    92090   100121   101478    97298 
   96368    96135    95449    98095   101982   105803   107230    99697 
   90844    93629   100491   100366    98243   100163   102640   100982 
   98525   101285   104829   104023   102980   102997   103657   103772 
  100149    99339   104588   106529   103532   100331    98694   103097 
  109260   105347    97048    94940    95002    94694    97902   104615 
  108335   102141    91857    91766   102701   107612    99159    92323 
   92255    93209    98338   102816   103090   106756   108761   103767 
  101376   103835    99764    89344    87611    95899   101570   101711 
  104017   108876   108926   106833   107286   104854    96143    86906 
   85305    87585    84670    82834    90636   101866   107961   109984 
  112323   113585   109488    98843    88106    85340    83566    74878 
   70236    80467   100464   115367   119062   122186   124399   114233 
  101788   100219    98631    90634    87286    89669    92074    97911 
  106317   107996   100115    93922    97040    99645   101711   108595 
  108268   104558   109201   109952   104260   101781   100787   100844 
   99594    95554    99222   107122   104044    97061   100326   109388 
  115540   116377   110990   101533    90725    81236    81097    90200 
   96992    96400    90606    89647    99645   108539   111554   113431 
  112120   107469   101402    99612   104081   104801   102298   102586 
  103825   108761   111803   102170    92253    96286   104262   108438 
  115063   119104   112983   103343    94644    89619    91494    94892 
   96907    94579    80981    66833    67066    75609    86013    98765 
  106721   106143   103194   100740    97691    96582    98664   103093 
  110025   113722   110796   105795   103335   108531   115558   114626 
  108908    98128    83733    76413    77573    82849    90388   100159 
  109779   115344   117140   112704   105460   106020   114354   124264 
  129488   128085   120971   105450    88739    81252    80283    82317 
   87237    95827   104622   100343    88911    92521   106165   110585 
  103757    98759   103219   109173   112258   110774   102032    98887 
  106227   107205   100292    99094   100967    95097    88116    95434 
  109967   116117   115074   106811    97191   100008   103325    93651 
   85806    88538    91221    89480    87122    89458   101194   108842 
   99011    89910    93176    91603    78866    65418    58553    61813 
   75263    91431    97475    95816   101577   108357   105357   104210 
  108885   107773   101524    94656    85006    85851   106621   128527 
  138573   139698   134986   125405   107089    82233    66329    70947 
   85240    92828    98873   109257   116531   118364   111641    99555 
   96361    94937    91634    99862   103251    95876   103259   113078 
  103790    95162    99423   100749    90365    78829    78790    83316 
   78898    74556    80959    90968   102917   117117   125214   122870 
  112179   102859   104772   112829   113964   104568    91837    82369 
   77640    74651    72239    70864    63821    55633    61700    75257 
   86773   103980   123235   131738   126983   115593   104306    89847 
   70323    53380    45728    46025    49089    62421    88668   108621 
  111835   104258    98750   101753   102931   100111   101877   114249 
  128841   129498   129580   136586   134982   134670   137545   126878 
  111204   101262    95715    92476    86852    86260    94941    97416 
   90530    83278    79705    81388    80570    74269    72164    76325 
   83204    88643    89271    96350   112219   113953   104619   112161 
  128863   131625   131467   142079   144804   132760   127452   126877 
  115635    99712    83142    67567    59718    58725    62178    64457 
   62936    61509    59198    59880    62512    59955    61984    71637 
   79738    89066   100956   115820   127180   117828   103569   106157 
  111813   116151   125929   129785   118725    99064    84706    89060 
  108603   123542   126334   122738   113936   103111    92712    81168 
   72191    68152    67436    70115    79194    96205   113219   119105 
  113232   104174    96284    93791   104086   116812   116433   110810 
  107567    97175    85729    86515    87197    84690    90577    97560 
  102452   111352   124224   136788   133708   113168   100177   103825 
  108223   105536    97742    89037    87960    95855   106937   114343 
  117787   124590   128506   122711   112476   101000    98408   103936 
  101331    97006    93655    79587    69983    76125    86922   102251 
  116312   116598   113098   111254   102913    98283   100283    93567 
   87355    91515    89378    77870    71102    76697    88314    92128 
   94232   103137   109506   112523   109250    95793    91003   101450 
  110635   118379   130731   135151   127816   121609   115293   100865 
   85315    75860    72355    77147    85948    88785    85279    79764 
   76598    77495    76311    71632    71442    76733    79145    76376 
   76575    81823    85149    89223    97616   103037   105780   109093 
  108014   106885   113801   121543   119430   109226   102772   105971 
  110309   106684    94750    84259    85577    89835    91335   103228 
  121911   131883   126458   104904    86392    88578    97790   102333 
  109794   118301   116552   106284    98418    95639    96263   101655 
  103056    93907    84519    77428    68651    65578    75109    88088 
   93004    96003   100947   101826   100972   102723   108697   117076 
  118165   106803    94387    91493    92502    92524    87387    78204 
   82151    92696    89731    83092    82032    81480    82739    91722 
  103403    99908    85686    79874    75656    68293    74699    91784 
   94219    83531    81213    85240    87694    93269   102004   109205 
  107113    93329    81303    80189    84604    87824    89211    93820 
  104412   118389   131296   139002   139378   128732   110272    97392 
   94508    94667    91019    84775    83810    85156    81162    81317 
   91743    98771    96825    98566   107851   111188   111768   124088 
  132045   119632   104435   100083    99017   100085   111067   118666 
  105424    92320    98063   107116   114924   118891   108164   101305 
  109664   112617   105421    99949   101424   106693   106768   102830 
  103936   109604   108395    94533    85540    94392   109107   119396 
  118100   101627    88246    87230    81363    75437    86264    98908 
  102634   104456   102377    97984    96467    98173   104679   110810 
  111257   110364   109351   110009   114087   108641    95253    94371 
   98886    93889    88863    91638    95078    91166    87799    95965 
  107021   109799   107770   107117   100062    82131    70561    70617 
   70455    72725    84217    98697   105231   103455   104308   107875 
  103623    97177   102418   115717   124850   127707   133220   140736 
  133510   113900   100158    98393   108862   117010   106008    86660 
   75969    78629    90141   102381   107272   100143    94321    99905 
  103957   100174    93846    90403    94864   102336   107951   109520 
  104289   103202   107838   110464   119607   124626   108270    96956 
  105935   108982   108091   119347   123873   114974   110961   115430 
  115573   104017    95983   102059   103213    90252    82584    90190 
  102973   110483   107783   104689   108030   102374    93044    98409 
  102632    97080   101323   115893   124835   121669   107857    95545 
   94592    93819    88277    90350    97650   102229   101130    83425 
   61837    58823    55527    40237    41241    63524    74347    64230 
   57978    64080    74416    92278   115593   134488   149629   157896 
  147174   128161   121977   121003   119809   124033   121688   113265 
  107964   102863   107749   118318   112741    98337    78251    46298 
   26775    24342    23940    40568    67694    73281    67314    77408 
   98221   108469   103700    93214    82011    80818   106035   142793 
  160126   158347   143528   116367   101449   110974   121981   121418 
  122317   129803   129156   115244   101578   103583   115814   112677 
   90295    72253    69526    67891    58596    51883    51346    54890 
   67978    85890    92721    88406    85429    82700    75424    72799 
   82608    94613    97697    99501    98447    85297    83170   102162 
  108131    95846    97641   115173   125807   125684   119362   111045 
  109110   109005    99760    83881    74546    79290    84066    77212 
   69476    66970    70964    88289   110680   122518   121002   113470 
  110456   110370   106308   103247   102710    98264    96821   108249 
  115494   109203   106444   104663   100972   106050   112138   110247 
   97126    78422    73080    82201    97957   114056   115594   106141 
   98141    89798    88047    94725    92312    85350    97042   121271 
  132546   123635   108602   103799   105468   100080    91209    93240 
  106753   109709    97400    97115   108936   109809   101840    90758 
   73440    63550    73917    89240    98750   109418   106834    81474 
   64366    71080    82040    90247   102233   112757   112334   107062 
  108043   103518    87356    86997   106592   115219   110082   111598 
  117370   116176   117713   125270   119579    97694    81153    82030 
   88493    88351    88075    90947    90855    89790    87854    86270 
   95540   112507   124658   128709   120649    98319    75340    65825 
   70160    84311   101728   115890   122936   118232   108901   105384 
   99697    87644    81294    82458    79895    76535    88653   109121 
  117109   110895    92661    72189    67017    74606    87078    96544 
   93492    91542   101736   104792    95281    95413   103205    98048 
   87363    85020    85310    83189    85987   102643   119247   116289 
  106827   106221   106438    99039    88090    84807    84885    76857 
   73980    85214    94474    95460    93488    91020    98216   113624 
  113312    98728    89386    85634    96672   117804   116442   102553 
   97725    89453    82598    87597    94679    97880    94206    94559 
  112472   118195    90941    70945    78736    91185   100532   103834 
   98035    97702   110612   122123   116107   103681   103808   109780 
  112018   114831   118299   115152   103132    92278    91991    90967 
   77788    67510    72511    80757    83458    88508   102565   119966 
  124722   108463    93407    99849   106286    95480    86201    88479 
   94162   101451   107590   110898   116176   119360   114064   100865 
   89128    93399   103172   102220   102591   107614   108953   105525 
   96704    94191    94434    82022    77154    89912    98344    97243 
   97027   103673   109852   105756   102899   108220   106011    98543 
  104848   121186   128394   116041   100495   108728   127263   127109 
  118707   121681   126964   123341   121341   123854   115873   100291 
   90718    85788    90659   110417   119460   105485    96688    98995 
   96320   101633   117637   115634    97139    92204   103035   110134 
  105063    96779    99927   108371   107310   101961    98616   101523 
  113301   115454   103994    98962    95638    85903    84999    94777 
  102721   106359   109309   114316   119240   117933   112871   111318 
  111983   108543    93175    72076    66168    71276    70642    77290 
   97891   106908   100126    99244   107281   114166   111484    95432 
   75664    73442    97244   123464   129938   119383    99348    82283 
   80972    84474    79390    80415    95843   112994   126130   128316 
  117459   102703    83340    64163    57755    66181    82189    89820 
   89265    97515   113581   132950   149279   140710   111482    90706 
   82627    76957    78035    90390   102059   101546    96327    93290 
   86837    87654   106535   123434   129598   131939   122121   105935 
   97682    88746    77795    80536    91282    93243    94386   100660 
  100847    95986    90114    83933    85507    92926    98175    99280 
   91691    78723    71543    71357    79966    98795   114422   118151 
  111196    95420    83112    80828    79171    78264    83310    89579 
   94181    95718    90819    82390    79217    87978   101927   105372 
   95354    84075    81876    89898    98307    97088    97788   106430 
  106463    99774    95713    87328    78938    83931    99438   107722 
   98708    84729    83322    91769    97144   102578   113474   124206 
  129320   123329   109450    97269    87651    81587    84043    94283 
  106341   118013   128167   133312   130015   115518   101891   100504 
   96745    86819    87751    98845   109569   115591   110663    95845 
   86057    91206   100051   100172    99149   101261   101213   103196 
  105530    96688    80078    71624    78610    97971   121284   132895 
  127635   118623   112053   108485   112750   115730   106118    91311 
   79020    73872    77543    78513    70703    58842    51728    57471 
   70842    88012   109029   121315   114208    95794    82193    73466 
   61360    55907    72870   103513   123316   129504   131132   124246 
  116197   120930   126870   121583   119653   128934   133555   126889 
  115594   103458    91810    82075    79178    82421    80292    70466 
   68934    83485    91765    81150    77520    91122    98701    95607 
   93311    86649    79508    90209   106879   105874    96885    99011 
  110111   117410   117848   113189    99023    86233    87241    86850 
   78880    73382    70264    72737    82573    87323    82693    81728 
   91764   103448   112558   122175   118314    95384    81687    87071 
   91381    97738   116893   133019   131610   121646   114043   104265 
   96525    99641    95373    74956    62814    71657    88770    98604 
